ICEYE-X40               
1 60549U 24149CK  26203.63788362  .00003749  00000+0  32145-3 0  9990
2 60549  97.6807 279.5648 0003484 342.4887  17.6215 14.98115666105385
SATELIOT_1              
1 60550U 24149CL  26203.82672198  .00002262  00000+0  19552-3 0  9998
2 60550  97.6739 279.1312 0004919 329.1809  30.9124 14.98189206105406
BRO-14                  
1 60551U 24149CM  26203.64001765  .00000816  00000+0  77307-4 0  9991
2 60551  97.6861 278.7801 0006152 353.5286   6.5855 14.96251572105293
SATELIOT_3              
1 60552U 24149CN  26203.20155527  .00001310  00000+0  11536-3 0  9991
2 60552  97.6803 279.3417 0004351 335.2971  24.8043 14.98176032105322
BRO-15                  
1 60553U 24149CP  26203.89030364  .00001150  00000+0  10693-3 0  9993
2 60553  97.6790 278.5942 0006974 339.6089  20.4853 14.96232928105341
UM5-RIBAT               
1 60554U 24149CQ  26203.66671248  .00001842  00000+0  14806-3 0  9999
2 60554  97.6590 280.9841 0000618 239.9630 120.1533 15.01241478105517
UM5-EOSAT               
1 60555U 24149CR  26203.15506341  .00002472  00000+0  19432-3 0  9995
2 60555  97.6777 281.5029 0008791  17.0906 343.0613 15.01759283105468
LASARSAT                
1 62391U 24247Q   26203.67494438  .00037711  00000+0  69745-3 0  9990
2 62391  44.9745  62.4735 0008603 212.5816 147.4545 15.48423365 88811
CROCUBE                 
1 62394U 24247T   26203.88345556  .00048082  00000+0  81891-3 0  9991
2 62394  44.9713  57.9990 0008727 220.4300 139.5943 15.50662269 88886
TEVEL2-4                
1 63213U 25052D   26203.18371493  .00021346  00000+0  61522-3 0  9992
2 63213  97.3852  99.6543 0002876  37.6826 322.4619 15.35744990 75480
TEVEL2-5                
1 63214U 25052E   26203.66449762  .00020814  00000+0  60329-3 0  9994
2 63214  97.3850 100.0736 0002838  39.0942 321.0506 15.35573440 75551
TEVEL2-6                
1 63215U 25052F   26203.67764483  .00020647  00000+0  59914-3 0  9998
2 63215  97.3857 100.0719 0002905  41.4403 318.7060 15.35538157 75558
TEVEL2-1                
1 63217U 25052H   26203.19799207  .00020232  00000+0  59832-3 0  9998
2 63217  97.3828  99.1724 0003605  45.0225 315.1310 15.34943207 75466
TEVEL2-3                
1 63218U 25052J   26203.19126495  .00020629  00000+0  60877-3 0  9993
2 63218  97.3841  99.1918 0003537  48.5551 311.5996 15.35007108 75463
TEVEL2-2                
1 63219U 25052K   26203.26325918  .00020410  00000+0  60329-3 0  9993
2 63219  97.3827  99.2408 0003675  45.1461 315.0081 15.34957239 75472
TEVEL2-9                
1 63237U 25052AD  26202.24254238  .00012991  00000+0  41133-3 0  9993
2 63237  97.3890  97.5180 0007083  39.6084 320.5675 15.32853308 75241
TEVEL2-7                
1 63238U 25052AE  26203.66141760  .00018142  00000+0  57797-3 0  9993
2 63238  97.3893  98.8358 0007024  35.8352 324.3360 15.32583477 75450
TEVEL2-8                
1 63239U 25052AF  26202.69061748  .00015940  00000+0  50899-3 0  9992
2 63239  97.3893  97.8424 0007205  39.3565 320.8199 15.32536130 75309
FORESAIL-1 PRIME        
1 66778U 25276DS  26203.90179413  .00004109  00000+0  19968-3 0  9992
2 66778  97.4184 276.5226 0002255  26.2384 333.8965 15.18984233 35827
